{
  "norad_id": 64161,
  "name": "STARLINK-34341",
  "history": [
    {
      "epoch": "2026-03-28T20:28:38.651232Z",
      "apogee_km": 550.7192413512157,
      "perigee_km": 548.3359861707895,
      "latitude_deg": -5.16590446314754e-06,
      "longitude_deg": 7.014740914387142,
      "height_km": 553.464411696079,
      "semi_major_axis_km": 6927.664613761002,
      "eccentricity": 0.00017201,
      "inclination_deg": 97.602,
      "raan_deg": 140.4435,
      "arg_perigee_deg": 137.1244,
      "mean_anomaly_deg": 223.0117,
      "mean_motion_rev_day": 15.05644634
    },
    {
      "epoch": "2026-03-29T02:51:26.642304Z",
      "apogee_km": 550.6957083800507,
      "perigee_km": 548.3195262763065,
      "latitude_deg": -9.749024213733616e-06,
      "longitude_deg": -88.68533846178343,
      "height_km": 553.4505367638062,
      "semi_major_axis_km": 6927.644617328178,
      "eccentricity": 0.0001715,
      "inclination_deg": 97.6019,
      "raan_deg": 140.7054,
      "arg_perigee_deg": 137.7426,
      "mean_anomaly_deg": 222.3933,
      "mean_motion_rev_day": 15.05651153
    },
    {
      "epoch": "2026-03-30T01:11:14.294400Z",
      "apogee_km": 550.6303079079771,
      "perigee_km": 548.3074816514572,
      "latitude_deg": 5.3570466181101245e-06,
      "longitude_deg": -63.633946906782995,
      "height_km": 553.4631798887738,
      "semi_major_axis_km": 6927.605894779716,
      "eccentricity": 0.00016765,
      "inclination_deg": 97.6012,
      "raan_deg": 141.6224,
      "arg_perigee_deg": 143.2361,
      "mean_anomaly_deg": 216.8981,
      "mean_motion_rev_day": 15.05663777
    },
    {
      "epoch": "2026-03-30T13:56:49.852320Z",
      "apogee_km": 550.6018586884529,
      "perigee_km": 548.3017606518661,
      "latitude_deg": 5.0376075703217085e-05,
      "longitude_deg": 104.96766019648646,
      "height_km": 553.4603038469684,
      "semi_major_axis_km": 6927.588809670159,
      "eccentricity": 0.00016601,
      "inclination_deg": 97.6015,
      "raan_deg": 142.1462,
      "arg_perigee_deg": 145.2156,
      "mean_anomaly_deg": 214.918,
      "mean_motion_rev_day": 15.05669347
    }
  ]
}